C/2018 R5 (Lemmon),e,103.7483,171.1172,178.1981,22.89237,0.0089985,0.84134688,13.0632,01/01.0/2023,2000,g 11.5,4.0
# From MPEC 2022-QC6
C/2018 S2 (TESS),e,64.1553,85.1009,290.8059,14.35959,0.0181130,0.61879547,27.4652,01/01.0/2023,2000,g  7.5,4.0
# From MPEC 2022-TA0
C/2018 U1 (Lemmon),h,11/03.1668/2021,108.3149,75.4894,180.4768,1.001542,4.992965,2000,5.0,4.0
# From MPC114604
C/2018 V1 (Machholz-Fujikawa-Iwamoto),h,12/02.8229/2018,144.0936,129.0522,89.0936,1.000353,0.390232,2000,12.0,4.0
# From MPC115884
C/2018 V2 (ATLAS),e,159.1675,357.0780,319.0140,25.06192,0.0078557,0.90086221,11.7646,01/01.0/2023,2000,g 15.0,4.0
# From MPC114604
P/2018 VN2 (Leonard),e,18.2640,226.4546,138.8482,4.063900,0.1203066,0.47892849,200.7492,01/01.0/2023,2000,g 15.0,4.0
# From MPEC 2022-VC5
A/2018 V3,e,164.9651,308.6971,3.6061,127.3342,0.0006859,0.98946980,0.0000,09/09.1621/2019,2000,g 15.7,2.0
# From MPEC 2022-M21
C/2018 V4 (Africano),e,69.0238,78.2852,359.9430,201.2002,0.0003454,0.98412072,0.0000,03/01.5146/2019,2000,g 12.5,4.0
# From MPEC 2021-P47
P/2018 V5 (Trujillo-Sheppard),e,10.5889,171.2864,260.6644,8.960192,0.0367475,0.47551635,56.9702,01/01.0/2023,2000,g 12.5,4.0
# From MPEC 2021-P47
C/2018 W1 (Catalina),e,83.3710,233.6566,251.2118,21.68274,0.0097619,0.93732481,12.9844,01/01.0/2023,2000,g 15.5,2.0
# From MPEC 2021-P47
C/2018 W2 (Africano),h,09/05.3368/2019,116.6260,181.8171,158.0648,1.000564,1.460576,2000,9.5,4.0
# From MPEC 2022-Q17
A/2018 W3,e,104.8163,251.6711,313.9669,691.0519,0.0000543,0.99379125,0.0000,04/13.0588/2021,2000,g 10.5,2.0
# From MPC119996
C/2018 X2 (Fitzsimmons),e,23.0717,340.8135,161.9539,139.8654,0.0005959,0.98483320,0.0000,07/08.2346/2019,2000,g 12.0,4.0
# From MPC114604
C/2018 X3 (PANSTARRS),e,43.4061,78.8318,359.7428,12.37327,0.0226453,0.78248986,33.1054,01/01.0/2023,2000,g 14.5,4.0
# From MPC118842
C/2018 Y1 (Iwamoto),e,160.4081,147.4909,357.9215,130.9623,0.0006576,0.99019858,0.0000,02/06.0237/2019,2000,g 11.5,4.0
# From MPC114605
P/2018 Y2 (Africano),e,11.6839,297.2127,162.2417,7.453467,0.0484358,0.47916270,70.7288,01/01.0/2023,2000,g 11.5,4.0
# From MPC114605
P/2019 A1 (PANSTARRS),e,13.7502,312.2689,150.7085,5.116723,0.0851562,0.56903926,131.3978,01/01.0/2023,2000,g 16.0,4.0
# From MPEC 2021-P47
P/2019 A2 (ATLAS),e,14.8607,139.4513,323.8593,5.714460,0.0721508,0.38204480,108.4125,01/01.0/2023,2000,g 10.5,4.0
# From MPEC 2022-M21
P/2019 A3 (PANSTARRS),e,15.3751,31.2938,325.6437,3.144525,0.1767549,0.26609482,284.6195,01/01.0/2023,2000,g 16.0,4.0
# From MPEC 2022-L66
P/2019 A4 (PANSTARRS),e,13.3065,119.2428,342.9898,2.613378,0.2332925,0.08707479,345.7200,01/01.0/2023,2000,g 15.0,4.0
# From MPEC 2021-P47
C/2019 A5 (PANSTARRS),e,67.5538,146.6123,355.8151,21.49369,0.0098909,0.70617147,12.9000,01/01.0/2023,2000,g  9.5,4.0
# From MPC114605
P/2019 A6 (Lemmon-PANSTARRS),e,33.2614,280.2049,156.1848,5.357927,0.0794710,0.63981571,125.9638,01/01.0/2023,2000,g 16.0,4.0
# From MPC115884
P/2019 A8 (PANSTARRS),e,2.1883,114.3450,65.9892,4.280178,0.1113042,0.24083839,181.2944,01/01.0/2023,2000,g 16.0,4.0
# From MPC118842
C/2019 A9 (PANSTARRS),e,84.2379,278.4028,237.9236,39.14856,0.0040237,0.96344921,5.0500,01/01.0/2023,2000,g 15.0,4.0
# From MPEC 2022-L66
C/2019 B1 (Africano),e,123.4001,290.3834,174.7732,138.2971,0.0006060,0.98845004,0.0000,03/18.7981/2019,2000,g 16.0,4.0
# From MPC115885
P/2019 B2 (Groeller),e,17.0195,175.7460,1.0466,3.911583,0.1274017,0.36142973,167.0520,01/01.0/2023,2000,g 14.5,4.0
# From MPEC 2022-YB4
C/2019 B3 (PANSTARRS),h,01/20.4209/2021,66.5361,358.4358,263.9622,1.000304,6.824942,2000,5.5,4.0
# From MPEC 2021-P47
C/2019 C1 (ATLAS),e,36.0493,212.3906,319.0930,648.9089,0.0000596,0.98986416,0.0000,05/04.4409/2020,2000,g 10.0,4.0
# From MPEC 2022-O08
C/2019 D1 (Flewelling),e,34.0166,231.6686,70.6654,142.8333,0.0005774,0.98890456,0.0000,05/11.3682/2019,2000,g 13.0,4.0
# From MPEC 2022-YN2
C/2019 E3 (ATLAS),h,11/14.7327/2023,84.2972,347.2504,280.6773,1.000197,10.313142,2000,2.5,4.0
# From MPEC 2022-YN2
C/2019 F1 (ATLAS-Africano),h,06/23.1029/2021,54.2069,38.6801,251.2502,1.003488,3.599169,2000,5.5,4.0
# From MPEC 2021-P47
C/2019 F2 (ATLAS),e,19.2575,175.4880,11.5985,16.63773,0.0145232,0.86501471,17.5863,01/01.0/2023,2000,g 12.0,4.0
# From MPEC 2021-P47
A/2019 G2,e,159.2122,208.1579,82.6049,458.0955,0.0001005,0.99499434,0.0000,12/08.8414/2019,2000,g 16.5,2.0
# From MPEC 2022-VC5
A/2019 G3,e,156.8086,49.8844,161.9296,17.21412,0.0137999,0.83444446,20.5430,01/01.0/2023,2000,g 17.1,2.0
# From MPEC 2022-P82
C/2019 G4 (PANSTARRS),h,09/15.9059/2018,138.3610,130.4561,287.7900,1.001869,5.850272,2000,9.5,4.0
# From MPC114607
P/2019 GG21 (PANSTARRS),e,6.0854,340.5609,208.6039,7.469913,0.0482759,0.47192064,64.2932,01/01.0/2023,2000,g 12.0,4.0
# From MPEC 2022-M21
C/2019 H1 (NEOWISE),e,104.4771,269.2591,19.3468,248.8236,0.0002511,0.99258319,0.0000,04/27.9930/2019,2000,g 15.5,4.0
# From MPEC 2022-O08
C/2019 J1 (Lemmon),e,24.5434,98.1455,167.7682,68.30917,0.0017458,0.96362824,2.3810,01/01.0/2023,2000,g 12.0,4.0
# From MPEC 2021-R75
C/2019 J2 (Palomar),e,105.2319,25.5587,98.7072,161.7252,0.0004792,0.98934590,0.0000,07/20.2008/2019,2000,g 13.0,4.0
# From MPC117071
C/2019 J3 (ATLAS),h,08/02.3671/2019,131.3647,270.5912,16.6181,1.000684,2.372239,2000,13.5,4.0
# From MPEC 2022-M21
C/2019 JU6 (ATLAS),h,06/01.7058/2019,148.3307,21.7644,95.0097,1.000012,2.045602,2000,14.5,4.0
# From MPEC 2022-O08
C/2019 K1 (ATLAS),e,87.0681,73.3471,265.7194,20117,0.0000003,0.99989992,0.0000,02/12.8358/2020,2000,g 10.0,4.0
# From MPC119997
C/2019 K4 (Ye),e,105.2966,180.1419,139.8552,1346,0.0000200,0.99831630,0.0000,06/15.7228/2019,2000,g 12.5,4.0
# From MPEC 2021-P47
C/2019 K5 (Young),e,15.3193,177.1268,175.1192,167.2288,0.0004558,0.98779729,0.0000,06/23.0613/2019,2000,g 13.0,4.0
# From MPEC 2021-P47
C/2019 K6 (PANSTARRS),e,132.3823,42.9898,187.6073,1694,0.0000141,0.99768249,0.0000,05/20.1109/2020,2000,g 11.5,4.0
# From MPEC 2022-Y15
C/2019 K7 (Smith),h,06/17.5592/2020,103.5366,307.9548,27.3959,1.000838,4.478156,2000,6.0,4.0
# From MPEC 2021-R75
C/2019 K8 (ATLAS),e,93.1588,291.0354,85.3835,2728,0.0000069,0.99882957,0.0000,07/21.7821/2019,2000,g 11.5,4.0
# From MPC118095
C/2019 L1 (PANSTARRS),e,9.9818,254.4296,50.0483,9.842318,0.0319196,0.70555093,39.5510,01/01.0/2023,2000,g 13.5,4.0
# From MPC115886
C/2019 L2 (NEOWISE),e,152.2115,12.5477,18.8295,24.99770,0.0078859,0.93496537,10.8053,01/01.0/2023,2000,g 16.0,4.0
# From MPEC 2022-YB4
P/2019 LD2 (ATLAS),e,11.6224,179.5957,120.6112,5.227160,0.0824718,0.12680943,84.5320,01/01.0/2023,2000,g  8.5,4.0
# From MPEC 2022-YN2
C/2019 L3 (ATLAS),h,01/09.6345/2022,48.3525,290.7829,171.6138,1.001976,3.554405,2000,4.5,4.0
# From MPC118095
C/2019 LB7 (Kleyna),e,164.2918,3.8840,336.5428,34.62697,0.0048371,0.92809752,6.6593,01/01.0/2023,2000,g 17.0,4.0
# From MPEC 2022-O08
P/2019 M2 (ATLAS),e,12.2733,307.6149,332.5620,3.028503,0.1870088,0.64752942,241.0438,01/01.0/2023,2000,g 21.2,4.0
# From MPC118095
C/2019 M3 (ATLAS),e,99.5012,154.9208,87.8881,9399,0.0000011,0.99974241,0.0000,01/01.1743/2019,2000,g 12.2,4.0
# From MPEC 2022-R68
C/2019 N1 (ATLAS),e,82.4295,13.5737,193.4309,1897,0.0000119,0.99910093,0.0000,12/01.4668/2020,2000,g  7.5,4.0
# From MPEC 2022-A21
C/2019 NJ3 (Lemmon),h,10/22.8714/2020,99.4266,142.4653,246.9068,1.002355,4.362770,2000,9.0,4.0
# From MPEC 2022-VC5
A/2019 O2,e,93.3048,48.2662,129.6480,57.75841,0.0022453,0.83235740,359.7835,01/01.0/2023,2000,g  9.5,2.0
# From MPEC 2022-YN2
C/2019 O3 (Palomar),h,03/09.4786/2021,89.8196,300.4109,60.1232,1.004304,8.820761,2000,3.5,4.0
# From MPEC 2021-P47
A/2019 O4,e,115.0946,354.9083,61.9001,33.24025,0.0051429,0.89030080,5.4272,01/01.0/2023,2000,g 15.5,2.0
# From MPEC 2021-N06
C/2019 Q1 (Lemmon),h,07/20.5419/2020,155.7281,42.4633,56.1778,1.000475,5.001913,2000,8.5,4.0
# From MPC117072
A/2019 Q2,e,159.0316,188.0051,176.3704,57.68954,0.0022494,0.97812197,0.0000,07/22.0376/2019,2000,g 18.0,2.0
# From MPC117072
C/2019 Q3 (PANSTARRS),h,08/21.4768/2018,65.5339,151.3326,152.7876,1.002754,7.264670,2000,8.5,4.0
# From MPC117072
P/2019 S2 (PANSTARRS),e,10.4670,93.1401,217.1440,4.741979,0.0954475,0.20592678,134.4619,01/01.0/2023,2000,g 13.5,4.0
# From MPEC 2022-CN4
P/2019 S3 (PANSTARRS),e,8.6937,150.1562,213.0407,3.415363,0.1561524,0.47122894,190.9669,01/01.0/2023,2000,g 18.3,4.0
# From MPEC 2021-S45
C/2019 S4 (Lemmon),e,92.0711,63.1494,71.3739,232.5224,0.0002780,0.98519473,0.0000,04/07.9755/2020,2000,g 11.0,4.0
# From MPEC 2022-YN2
A/2019 T1,e,120.8775,6.9446,91.0737,38.68883,0.0040957,0.88932476,2.9335,01/01.0/2023,2000,g 13.0,2.0
# From MPEC 2022-YN2
C/2019 T2 (Lemmon),e,111.4815,155.6473,239.4288,3501,0.0000048,0.99924407,0.0000,04/22.4822/2021,2000,g  9.0,4.0
# From MPEC 2022-WQ9
C/2019 T3 (ATLAS),e,121.8465,139.5317,112.4340,3073,0.0000058,0.99806310,0.0000,03/04.1004/2021,2000,g  6.8,4.0
# From MPEC 2022-YN2
C/2019 T4 (ATLAS),e,53.6319,199.9392,351.1824,973.4179,0.0000325,0.99564192,0.0000,06/09.0194/2022,2000,g  5.0,4.0
# From MPEC 2021-P47
P/2019 T5 (ATLAS),e,33.4791,247.6315,189.5622,7.996325,0.0435882,0.80944515,54.4141,01/01.0/2023,2000,g 15.0,4.0
# From MPEC 2021-P47
P/2019 T6 (PANSTARRS),e,18.7002,71.2328,328.9766,5.437000,0.0777437,0.62303620,89.3723,01/01.0/2023,2000,g 15.5,4.0
# From MPC118096
P/2019 U4 (PANSTARRS),e,11.7003,200.0007,181.0176,3.520250,0.1492258,0.47600279,179.0213,01/01.0/2023,2000,g 19.0,4.0
# From MPEC 2022-YN2
C/2019 U5 (PANSTARRS),h,03/29.8679/2023,113.5211,2.6372,181.5011,1.001507,3.624163,2000,4.5,4.0
# From MPEC 2022-H04
C/2019 U6 (Lemmon),e,60.9834,235.7479,329.5967,348.7933,0.0001513,0.99737995,0.0000,06/18.4947/2020,2000,g 10.0,4.0
# From MPEC 2022-N37
C/2019 V1 (Borisov),e,61.8964,83.1724,51.1645,1492,0.0000171,0.99792502,0.0000,07/16.3801/2020,2000,g 11.0,4.0
# From MPEC 2022-L66
P/2019 V2 (Groeller),e,11.8084,189.1856,335.7980,7.501256,0.0479737,0.33111343,38.6294,01/01.0/2023,2000,g 10.0,4.0
# From MPC119998
